{"type": "FeatureCollection", "features": [{"type": "Feature", "properties": {"type": "node", "id": 1688992103, "tags": {"name": "T\u00f8nder", "name:de": "Tondern", "name:fy": "Tuner", "name:is": "T\u00f6nder", "name:ja": "\u30c8\u30a5\u30ca\u30fc", "name:ko": "\ud1f4\ub124\ub974", "name:nl": "T\u00f8nder", "place": "town", "population": "7581", "population:date": "2020-01-01", "source:population": "http://www.statistikbanken.dk/BY1"}}, "geometry": {"type": "Point", "coordinates": [8.8629408, 54.9380637]}}, {"type": "Feature", "properties": {"type": "node", "id": 21148742, "tags": {"name": "S\u00f8nderborg", "name:da": "S\u00f8nderborg", "name:de": "Sonderburg", "name:id": "Munisipalitas S\u00f8nderborg", "name:ja": "\u30bb\u30ca\u30dc\u30fc", "name:ka": "\u10e1\u10d4\u10dc\u10d4\u10e0\u10d1\u10dd\u10e0\u10d2\u10d8", "name:ko": "\uc1e0\ub124\ub974\ubcf4\ub974", "name:lt": "Sionderborgas", "name:mk": "\u0421\u043e\u043d\u0434\u0435\u0440\u0431\u043e\u0440\u0433", "name:nl": "S\u00f8nderborg", "name:ru": "\u0421\u0451\u043d\u043d\u0435\u0440\u0431\u043e\u0440\u0433", "name:sr": "\u0421\u0435\u043d\u0434\u0435\u0440\u0431\u043e\u0440\u0433", "place": "town", "population": "27785", "population:date": "2018-01-01", "source:population": "http://www.statistikbanken.dk/BY1", "wikidata": "Q21179", "wikipedia": "da:S\u00f8nderborg"}}, "geometry": {"type": "Point", "coordinates": [9.7897999, 54.9089186]}}, {"type": "Feature", "properties": {"type": "node", "id": 2387702632, "tags": {"name": "Ringk\u00f8bing", "name:lt": "Ringkiobingas", "name:ru": "\u0420\u0438\u043d\u0433\u043a\u0451\u0431\u0438\u043d\u0433", "place": "town", "population": "9966", "population:date": "2018-01-01", "source:population": "http://www.statistikbanken.dk/BY1", "wikidata": "Q502693", "wikipedia": "da:Ringk\u00f8bing"}}, "geometry": {"type": "Point", "coordinates": [8.2542739, 56.090357]}}, {"type": "Feature", "properties": {"type": "node", "id": 597643755, "tags": {"name": "Ribe", "name:de": "Ripen", "name:fa": "\u0631\u06cc\u0628\u0647", "name:hr": "Ribe", "name:ja": "\u30ea\u30fc\u30d9", "name:ko": "\ub9ac\ubca0", "name:nl": "Ribe", "name:ru": "\u0420\u0438\u0431\u0435", "name:zh": "\u91cc\u4f2f", "place": "town", "population": "8259", "population:date": "2018-01-01", "source:population": "http://www.statistikbanken.dk/BY1", "wikidata": "Q322361", "wikipedia": "da:Ribe"}}, "geometry": {"type": "Point", "coordinates": [8.7647838, 55.3284036]}}, {"type": "Feature", "properties": {"type": "node", "id": 21040360, "tags": {"name": "Esbjerg", "name:ar": "\u0625\u0633\u0628\u064a\u0631\u063a", "name:da": "Esbjerg", "name:de": "Esberg", "name:hu": "Esbjerg", "name:lt": "Esbjergas", "name:ru": "\u042d\u0441\u0431\u044c\u0435\u0440\u0433", "name:zh": "\u57c3\u65af\u6bd4\u7ea6", "place": "city", "population": "72398", "population:date": "2018-01-01", "source:population": "http://www.statistikbanken.dk/BY1", "wikidata": "Q26234", "wikipedia": "da:Esbjerg"}}, "geometry": {"type": "Point", "coordinates": [8.4520751, 55.4664892]}}, {"type": "Feature", "properties": {"type": "node", "id": 21518091, "tags": {"name": "Varde", "name:de": "Varde", "name:nl": "Varde", "name:ru": "\u0412\u0430\u0440\u0434\u0435", "name:sr": "\u0412\u0430\u0440\u0434\u0435", "place": "town", "population": "13949", "population:date": "2018-01-01", "source:population": "http://www.statistikbanken.dk/BY1", "wikidata": "Q2048321", "wikipedia": "da:Varde"}}, "geometry": {"type": "Point", "coordinates": [8.4811757, 55.6176702]}}, {"type": "Feature", "properties": {"type": "node", "id": 26559236, "tags": {"name": "Vejen", "place": "town", "population": "9763", "population:date": "2018-01-01", "source:population": "http://www.statistikbanken.dk/BY1", "wikidata": "Q1016313", "wikipedia": "da:Vejen"}}, "geometry": {"type": "Point", "coordinates": [9.1317951, 55.4743417]}}, {"type": "Feature", "properties": {"type": "node", "id": 25425345, "tags": {"alt_name": "\u00c5benr\u00e5", "name": "Aabenraa", "name:de": "Apenrade", "name:es": "Abenr\u00e1", "name:et": "\u00c5benr\u00e5", "name:fr": "\u00c5benr\u00e5", "name:fy": "Apenrua", "name:hr": "Aabenraa", "name:ja": "\u30aa\u30fc\u30d9\u30f3\u30ed\u30fc", "name:ko": "\uc624\ubca4\ub85c", "name:lt": "Obenro", "name:nl": "Aabenraa", "name:pt": "\u00c5benr\u00e5", "name:sk": "\u00c5benr\u00e5", "name:sr": "\u041e\u0431\u0435\u043d\u0440\u043e", "name:sv": "\u00c5benr\u00e5", "name:zh": "\u5965\u672c\u7f57", "place": "town", "population": "16274", "population:date": "2018-01-01", "source:population": "http://www.statistikbanken.dk/BY1", "wikidata": "Q154897", "wikipedia": "da:Aabenraa"}}, "geometry": {"type": "Point", "coordinates": [9.4209667, 55.0446228]}}, {"type": "Feature", "properties": {"type": "node", "id": 26559209, "tags": {"name": "Haderslev", "name:de": "Hadersleben", "name:eo": "Haderslevo", "name:ka": "\u10f0\u10d0\u10d3\u10d4\u10e0\u10e1\u10da\u10d4\u10d5\u10d8", "name:lt": "Haderslevas", "name:mk": "\u0425\u0430\u0434\u0435\u0440\u0441\u043b\u0435\u0432", "name:nl": "Haderslev", "name:ru": "\u0425\u0430\u0434\u0435\u0440\u0441\u043b\u0435\u0432", "name:sr": "\u0425\u0430\u0434\u0435\u0440\u0441\u043b\u0435\u0432", "place": "town", "population": "21973", "population:date": "2018-01-01", "source:population": "http://www.statistikbanken.dk/BY1", "wikidata": "Q29868", "wikipedia": "da:Haderslev"}}, "geometry": {"type": "Point", "coordinates": [9.4997871, 55.2500715]}}, {"type": "Feature", "properties": {"type": "node", "id": 26559170, "tags": {"name": "Kolding", "name:hu": "Kolding", "name:lt": "Koldingas", "name:ru": "\u041a\u043e\u043b\u0434\u0438\u043d\u0433", "name:uk": "\u041a\u043e\u043b\u044c\u0434\u0438\u043d\u0433", "place": "city", "population": "60508", "population:date": "2018-01-01", "source": "geonames.org", "source:population": "http://www.statistikbanken.dk/BY1", "wikidata": "Q27119", "wikipedia": "da:Kolding"}}, "geometry": {"type": "Point", "coordinates": [9.47905, 55.4894999]}}, {"type": "Feature", "properties": {"type": "node", "id": 8247355512, "tags": {"name": "Bredsten", "place": "town", "wikidata": "Q1984534", "wikipedia": "da:Bredsten"}}, "geometry": {"type": "Point", "coordinates": [9.3819326, 55.7022191]}}, {"type": "Feature", "properties": {"type": "node", "id": 26559198, "tags": {"name": "Vejle", "name:bg": "\u0412\u0430\u0439\u043b\u0435", "name:fa": "\u0648\u0627\u06cc\u0644\u0647", "name:ja": "\u30f4\u30a1\u30a4\u30ec", "name:ka": "\u10d5\u10d0\u10d8\u10da\u10d4", "name:ko": "\ubc14\uc77c\ub808", "name:lt": "Vail\u0117", "name:mk": "\u0412\u0430\u0458\u043b\u0435", "name:ru": "\u0412\u0430\u0439\u043b\u0435", "name:sr": "\u0412\u0435\u0458\u043b\u0435", "name:th": "\u0e44\u0e27\u0e40\u0e25", "name:zh": "\u74e6\u57c3\u52d2", "old_name:de": "Weile", "place": "city", "population": "56567", "population:date": "2018-01-01", "source": "geonames.org", "source:population": "http://www.statistikbanken.dk/BY1", "wikidata": "Q27116", "wikipedia": "da:Vejle"}}, "geometry": {"type": "Point", "coordinates": [9.5333238, 55.7000057]}}, {"type": "Feature", "properties": {"type": "node", "id": 26559277, "tags": {"name": "Middelfart", "name:de": "Middelfart", "name:nl": "Middelfart", "name:sr": "\u041c\u0438\u0434\u0435\u043b\u0444\u0430\u0440\u0442", "place": "town", "population": "15246", "population:date": "2018-01-01", "source:population": "http://www.statistikbanken.dk/BY1", "wikidata": "Q613441", "wikipedia": "da:Middelfart"}}, "geometry": {"type": "Point", "coordinates": [9.7392181, 55.4993014]}}, {"type": "Feature", "properties": {"type": "node", "id": 26559058, "tags": {"alt_name": "F\u00e6stningsbyen", "name": "Fredericia", "name:de": "Fredericia", "name:ja": "\u30d5\u30ec\u30bc\u30ea\u30b7\u30a2", "name:ka": "\u10e4\u10e0\u10d4\u10d3\u10d4\u10e0\u10d8\u10e1\u10d8\u10d0", "name:kk": "\u0424\u0440\u0435\u0434\u0435\u0440\u0438\u0441\u0438\u044f", "name:ko": "\ud504\ub808\ub370\ub9ac\uc2dc\uc544", "name:lt": "Frederisija", "name:mk": "\u0424\u0440\u0435\u0434\u0435\u0440\u0438\u0446\u0438\u0458\u0430", "name:nl": "Fredericia", "name:ru": "\u0424\u0440\u0435\u0434\u0435\u0440\u0438\u0441\u0438\u044f", "name:sr": "\u0424\u0440\u0435\u0434\u0435\u0440\u0438\u043a\u0438\u0458\u0430", "old_name:de": "Friedericia", "place": "town", "population": "41044", "population:date": "2018-01-01", "source:population": "http://www.statistikbanken.dk/BY1", "wikidata": "Q21181", "wikipedia": "da:Fredericia"}}, "geometry": {"type": "Point", "coordinates": [9.7562169, 55.565268]}}, {"type": "Feature", "properties": {"type": "node", "id": 26559047, "tags": {"name": "Hedensted", "name:de": "Hedensted", "name:nl": "Hedensted", "name:sr": "\u0425\u0435\u0434\u0435\u043d\u0441\u0442\u0435\u0434", "place": "town", "population": "11835", "population:date": "2018-01-01", "source:population": "http://www.statistikbanken.dk/BY1", "wikidata": "Q3500912", "wikipedia": "da:Hedensted"}}, "geometry": {"type": "Point", "coordinates": [9.6994255, 55.7705233]}}, {"type": "Feature", "properties": {"type": "node", "id": 2388778274, "tags": {"name": "Skjern", "place": "town", "population": "7866", "population:date": "2018-01-01", "source:population": "http://www.statistikbanken.dk/BY1", "wikidata": "Q2035962", "wikipedia": "da:Skjern"}}, "geometry": {"type": "Point", "coordinates": [8.4909186, 55.9469339]}}, {"type": "Feature", "properties": {"type": "node", "id": 26559007, "tags": {"name": "Herning", "name:de": "Herning", "name:id": "Munisipalitas Herning", "name:ja": "\u30d8\u30a2\u30cb\u30f3\u30b0", "name:ka": "\u10f0\u10d4\u10e0\u10dc\u10d8\u10dc\u10d2\u10d8", "name:kk": "\u0425\u0435\u0440\u043d\u0438\u043d\u0433", "name:lt": "Herningas", "name:mk": "\u0425\u0435\u0440\u043d\u0438\u043d\u0433", "name:ms": "Munisipaliti Herning", "name:nl": "Herning", "name:ru": "\u0425\u0435\u0440\u043d\u0438\u043d\u0433", "name:sr": "\u0425\u0435\u0440\u043d\u0438\u043d\u0433", "name:uk": "\u0413\u0435\u0440\u043d\u0456\u043d\u0433", "name:zh": "\u6d77\u5b81 (\u4e39\u9ea6)", "place": "town", "population": "44557", "population:date": "2018-01-01", "source:population": "http://www.statistikbanken.dk/BY1", "wikidata": "Q27393", "wikipedia": "da:Herning"}}, "geometry": {"type": "Point", "coordinates": [8.9746623, 56.1379757]}}, {"type": "Feature", "properties": {"type": "node", "id": 26559035, "tags": {"name": "Ikast", "name:de": "Ikast", "name:lt": "Ikastas", "name:sr": "\u0418\u043a\u0430\u0441\u0442", "place": "town", "population": "15479", "population:date": "2018-01-01", "source:population": "http://www.statistikbanken.dk/BY1", "wikidata": "Q1021277", "wikipedia": "da:Ikast"}}, "geometry": {"type": "Point", "coordinates": [9.1547931, 56.1390178]}}, {"type": "Feature", "properties": {"type": "node", "id": 2379841729, "tags": {"name": "Holstebro", "name:de": "Holstebro", "name:fo": "Holstebro kommuna", "name:ka": "\u10f0\u10dd\u10da\u10e1\u10e2\u10d4\u10d1\u10e0\u10dd", "name:lt": "Holstebro", "name:mk": "\u0425\u043e\u043b\u0442\u0435\u0441\u0431\u0440\u043e", "name:nl": "Holstebro", "name:pl": "Gmina Holstebro", "name:ru": "\u0425\u043e\u043b\u044c\u0441\u0442\u0435\u0431\u0440\u043e", "name:sr": "\u0425\u043e\u043b\u0441\u0442\u0435\u0431\u0440\u043e", "name:zh": "\u970d\u723e\u65af\u7279\u5e03\u7f85", "place": "town", "population": "36199", "population:date": "2018-01-01", "source:population": "http://www.statistikbanken.dk/BY1", "wikidata": "Q27678", "wikipedia": "da:Holstebro"}}, "geometry": {"type": "Point", "coordinates": [8.6159188, 56.3590324]}}, {"type": "Feature", "properties": {"type": "node", "id": 2385984997, "tags": {"name": "Struer", "name:de": "Struer", "name:en": "Struer", "name:nl": "Struer", "name:ru": "\u0421\u0442\u0440\u0443\u0435\u0440", "name:sr": "\u0421\u0442\u0440\u0443\u0435\u0440", "place": "town", "population": "10375", "population:date": "2018-01-01", "reg_name": "Struer", "source:population": "http://www.statistikbanken.dk/BY1", "wikidata": "Q1797189", "wikipedia": "da:Struer"}}, "geometry": {"type": "Point", "coordinates": [8.5951427, 56.4866768]}}, {"type": "Feature", "properties": {"type": "node", "id": 26559171, "tags": {"name": "Skive", "name:de": "Skive", "name:en": "Skive", "name:mk": "\u0421\u043a\u0438\u0432\u0435", "name:nl": "Skive", "name:no": "Skive (by)", "name:ru": "\u0421\u043a\u0438\u0432\u0435", "name:sr": "\u0421\u043a\u0438\u0432\u0435", "place": "town", "population": "20809", "population:date": "2018-01-01", "source:population": "http://www.statistikbanken.dk/BY1", "wikidata": "Q1019470", "wikipedia": "da:Skive"}}, "geometry": {"type": "Point", "coordinates": [9.029272, 56.5659301]}}, {"type": "Feature", "properties": {"type": "node", "id": 26559248, "tags": {"name": "Silkeborg", "name:bg": "\u0421\u0438\u043b\u043a\u0435\u0431\u043e\u0440\u0433", "name:de": "Silkeborg", "name:is": "Silkiborg", "name:ja": "\u30b7\u30eb\u30b1\u30dc\u30fc", "name:ka": "\u10e1\u10d8\u10da\u10d9\u10d4\u10d1\u10dd\u10e0\u10d2\u10d8", "name:ko": "\uc2e4\ucf00\ubcf4\ub974", "name:lt": "Silkeborgas", "name:mk": "\u0421\u0438\u043b\u043a\u0435\u0431\u043e\u0440\u0433", "name:nl": "Silkeborg", "name:ru": "\u0421\u0438\u043b\u044c\u043a\u0435\u0431\u043e\u0440\u0433", "name:zh": "\u9521\u5c14\u514b\u5821", "place": "town", "population": "43313", "population:date": "2018-01-01", "source:population": "http://www.statistikbanken.dk/BY1", "wikidata": "Q21180", "wikipedia": "da:Silkeborg"}}, "geometry": {"type": "Point", "coordinates": [9.5495141, 56.169453]}}, {"type": "Feature", "properties": {"type": "node", "id": 1368129781, "tags": {"name": "Horsens", "name:lt": "Horsensas", "name:ru": "\u0425\u043e\u0440\u0441\u0435\u043d\u0441", "name:uk": "\u0425\u043e\u0440\u0441\u0435\u043d\u0441", "place": "city", "population": "58646", "population:date": "2018-01-01", "source:population": "http://www.statistikbanken.dk/BY1", "wikidata": "Q190235", "wikipedia": "da:Horsens"}}, "geometry": {"type": "Point", "coordinates": [9.8444774, 55.8611696]}}, {"type": "Feature", "properties": {"type": "node", "id": 26559266, "tags": {"name": "Skanderborg", "name:de": "Skanderborg", "name:nl": "Skanderborg", "name:ru": "\u0421\u043a\u0430\u043d\u043d\u0435\u0440\u0431\u043e\u0440\u0433", "name:zh": "\u65af\u574e\u8a25\u5821\u81ea\u6cbb\u5e02", "place": "town", "population": "18907", "population:date": "2018-01-01", "source:population": "http://www.statistikbanken.dk/BY1", "wikidata": "Q503379", "wikipedia": "da:Skanderborg"}}, "geometry": {"type": "Point", "coordinates": [9.9317878, 56.0351868]}}, {"type": "Feature", "properties": {"type": "node", "id": 2278186810, "tags": {"name": "Viborg", "name:ca": "Viborg", "name:de": "Viborg", "name:el": "\u0392\u03af\u03bc\u03c0\u03bf\u03c1\u03b3\u03ba", "name:en": "Viborg", "name:hu": "Viborg", "name:is": "V\u00e9bj\u00f6rg", "name:ja": "\u30f4\u30a3\u30dc\u30fc", "name:ka": "\u10d5\u10d8\u10d1\u10dd\u10e0\u10d2\u10d8 (\u10d3\u10d0\u10dc\u10d8\u10d0)", "name:ko": "\ube44\ubcf4\ub974", "name:lt": "Viborgas", "name:mk": "\u0412\u0438\u0431\u043e\u0440\u0433", "name:nl": "Viborg", "name:nn": "Viborg", "name:ru": "\u0412\u0438\u0431\u043e\u0440\u0433", "name:sr": "\u0412\u0438\u0431\u043e\u0440\u0433", "name:sv": "Viborg", "name:uk": "\u0412\u0456\u0431\u043e\u0440\u0433", "name:vo": "Viborg", "name:zh": "\u7dad\u5821 (\u4e39\u9ea5)", "old_name:de": "Wiborg", "place": "town", "population": "40621", "population:date": "2018-01-01", "source:population": "http://www.statistikbanken.dk/BY1", "wikidata": "Q21176", "wikipedia": "da:Viborg"}}, "geometry": {"type": "Point", "coordinates": [9.4059354, 56.4469128]}}, {"type": "Feature", "properties": {"type": "node", "id": 2278043434, "tags": {"name": "Bjerringbro", "place": "town", "population": "7477", "population:date": "2018-01-01", "source:population": "http://www.statistikbanken.dk/BY1", "wikidata": "Q4919613", "wikipedia": "da:Bjerringbro"}}, "geometry": {"type": "Point", "coordinates": [9.656576, 56.3758414]}}, {"type": "Feature", "properties": {"type": "node", "id": 26559218, "tags": {"name": "Hadsten", "name:de": "Hadsten", "place": "town", "population": "8086", "population:date": "2018-01-01", "source:population": "http://www.statistikbanken.dk/BY1", "wikidata": "Q3522043", "wikipedia": "da:Hadsten"}}, "geometry": {"type": "Point", "coordinates": [10.0523863, 56.3290887]}}, {"type": "Feature", "properties": {"type": "node", "id": 2262438016, "tags": {"name": "Hobro", "name:de": "Hobro", "name:ru": "\u0425\u043e\u0431\u0440\u043e", "name:sr": "\u0425\u043e\u0431\u0440\u043e", "place": "town", "population": "12032", "population:date": "2018-01-01", "reg_name": "Hobro", "source:population": "http://www.statistikbanken.dk/BY1", "wikidata": "Q927713", "wikipedia": "da:Hobro"}}, "geometry": {"type": "Point", "coordinates": [9.7939799, 56.6371753]}}, {"type": "Feature", "properties": {"type": "node", "id": 26559154, "tags": {"name": "Randers", "name:de": "Randers", "name:hu": "Randers", "name:lt": "Randersas", "name:lv": "Ranersa", "name:ru": "\u0420\u0430\u043d\u043d\u0435\u0440\u0441", "name:uk": "\u0420\u0430\u043d\u043d\u0435\u0440\u0441", "place": "city", "population": "62687", "population:date": "2018-01-01", "source:population": "http://www.statistikbanken.dk/BY1", "wikidata": "Q27168", "wikipedia": "da:Randers"}}, "geometry": {"type": "Point", "coordinates": [10.0371476, 56.4617545]}}, {"type": "Feature", "properties": {"type": "node", "id": 7993125772, "tags": {"census": "2013", "name": "Marstal", "place": "town", "population": "2370", "wikidata": "Q3413939", "wikipedia": "da:Marstal"}}, "geometry": {"type": "Point", "coordinates": [10.5174056, 54.8558332]}}, {"type": "Feature", "properties": {"type": "node", "id": 26559138, "tags": {"name": "Rudk\u00f8bing", "place": "town", "population": "4647", "wikidata": "Q731023", "wikipedia": "da:Rudk\u00f8bing"}}, "geometry": {"type": "Point", "coordinates": [10.7167568, 54.9377498]}}, {"type": "Feature", "properties": {"type": "node", "id": 26559044, "tags": {"name": "Nakskov", "name:de": "Nakskov", "name:lt": "Nakskovas", "name:ru": "\u041d\u0430\u043a\u0441\u043a\u043e\u0432", "name:sr": "\u041d\u0430\u043a\u0441\u043a\u043e\u0432", "place": "town", "population": "12661", "population:date": "2018-01-01", "source:population": "http://www.statistikbanken.dk/BY1", "wikidata": "Q24231", "wikipedia": "da:Nakskov"}}, "geometry": {"type": "Point", "coordinates": [11.1493517, 54.8304979]}}, {"type": "Feature", "properties": {"type": "node", "id": 26559259, "tags": {"alt_name": "Nyk\u00f8bing F", "name": "Nyk\u00f8bing Falster", "name:de": "Nyk\u00f6bing Falster", "name:ja": "\u30cb\u30e5\u30fc\u30af\u30d3\u30f3\u30fb\u30d5\u30a1\u30eb\u30b9\u30bf\u30fc", "name:lt": "Niukiobingas", "name:ru": "\u041d\u044e\u043a\u0451\u0431\u0438\u043d\u0433 \u0424\u0430\u043b\u044c\u0441\u0442\u0435\u0440", "name:sr": "\u041d\u0438\u043a\u0435\u0431\u0438\u043d\u0433 \u0424\u0430\u043b\u0441\u0442\u0435\u0440", "name:uk": "\u041d\u044e\u043a\u0435\u0431\u0456\u043d\u0491 \u0424\u0430\u043b\u044c\u0441\u0442\u0435\u0440", "old_name": "Nyk\u00f8bing", "place": "town", "population": "16778", "population:date": "2018-01-01", "source:population": "http://www.statistikbanken.dk/BY1", "wikidata": "Q986435", "wikipedia": "da:Nyk\u00f8bing Falster"}}, "geometry": {"type": "Point", "coordinates": [11.8709918, 54.7646137]}}, {"type": "Feature", "properties": {"type": "node", "id": 26559278, "tags": {"alt_name": "F\u00e5borg", "name": "Faaborg", "name:da": "Faaborg", "name:fr": "F\u00e5borg", "name:id": "F\u00e5borg", "name:ru": "\u0424\u043e\u0431\u043e\u0440\u0433", "name:sv": "F\u00e5borg", "place": "town", "population": "7065", "population:date": "2018-01-01", "source:population": "http://www.statistikbanken.dk/BY1", "wikidata": "Q3547421", "wikipedia": "da:Faaborg"}}, "geometry": {"type": "Point", "coordinates": [10.2428246, 55.097087]}}, {"type": "Feature", "properties": {"type": "node", "id": 26559221, "tags": {"census": "2013", "name": "Ringe", "name:de": "Ringe", "name:en": "Ringe", "name:ms": "Ringe", "name:nl": "Ringe", "name:zh": "\u6797\u683c", "place": "town", "population": "5584", "wikidata": "Q303111", "wikipedia": "da:Ringe"}}, "geometry": {"type": "Point", "coordinates": [10.481895, 55.2351317]}}, {"type": "Feature", "properties": {"type": "node", "id": 7150539911, "tags": {"name": "Svendborg", "place": "town", "population": "27210", "population:date": "2019", "source:population": "Statistikbanken", "wikidata": "Q28031", "wikipedia": "da:Svendborg"}}, "geometry": {"type": "Point", "coordinates": [10.6068652, 55.0632573]}}, {"type": "Feature", "properties": {"type": "node", "id": 26559169, "tags": {"name": "Nyborg", "name:de": "Nyborg", "name:nl": "Nyborg", "name:ru": "\u041d\u044e\u0431\u043e\u0440\u0433", "name:sv": "Nyborg, Danmark", "old_name:de": "Nieburg", "place": "town", "population": "17164", "population:date": "2018-01-01", "source:population": "http://www.statistikbanken.dk/BY1", "wikidata": "Q3530435", "wikipedia": "da:Nyborg"}}, "geometry": {"type": "Point", "coordinates": [10.7976604, 55.3098281]}}, {"type": "Feature", "properties": {"type": "node", "id": 26559274, "tags": {"name": "Odense", "name:ar": "\u0623\u0648\u062f\u0646\u0633\u0647", "name:be": "\u041e\u0434\u044d\u043d\u0441\u044d", "name:be-tarask": "\u041e\u0434\u044d\u043d\u0441\u044d", "name:bg": "\u041e\u0434\u0435\u043d\u0441\u0435", "name:ce": "\u041e\u0434\u0435\u043d\u0441\u0435", "name:el": "\u039f\u03bd\u03c4\u03ad\u03bd\u03c3\u03b5", "name:fa": "\u0627\u062f\u0646\u0633\u0647", "name:he": "\u05d0\u05d5\u05d3\u05e0\u05d6\u05d4", "name:hu": "Odense", "name:hy": "\u0555\u0564\u0565\u0576\u057d\u0565", "name:is": "\u00d3\u00f0insv\u00e9", "name:ja": "\u30aa\u30fc\u30c7\u30f3\u30bb", "name:ka": "\u10dd\u10d3\u10d4\u10dc\u10e1\u10d4", "name:ko": "\uc624\ub374\uc138", "name:la": "Othania", "name:lt": "Odens\u0117", "name:mk": "\u041e\u0434\u0435\u043d\u0441\u0435", "name:os": "\u041e\u0434\u0435\u043d\u0441\u0435", "name:pms": "Odensa", "name:pnb": "\u0627\u0648\u0688\u06cc\u0646\u0633", "name:ru": "\u041e\u0434\u0435\u043d\u0441\u0435", "name:sr": "\u041e\u0434\u0435\u043d\u0441\u0435", "name:th": "\u0e42\u0e2d\u0e40\u0e14\u0e19\u0e40\u0e0b", "name:uk": "\u041e\u0434\u0435\u043d\u0441\u0435", "name:zh": "\u6b27\u767b\u585e", "old_name:de": "Ottensee", "place": "city", "population": "178210", "population:date": "2018-01-01", "source:population": "http://www.statistikbanken.dk/BY1", "wikidata": "Q25331", "wikipedia": "da:Odense"}}, "geometry": {"type": "Point", "coordinates": [10.3852104, 55.3997225]}}, {"type": "Feature", "properties": {"type": "node", "id": 26559203, "tags": {"name": "Kors\u00f8r", "name:de": "Kors\u00f6r", "name:ru": "\u041a\u043e\u0440\u0441\u0451\u0440", "name:sr": "\u041a\u043e\u0440\u0441\u0435\u0440", "place": "town", "population": "14583", "population:date": "2018-01-01", "source:population": "http://www.statistikbanken.dk/BY1", "wikidata": "Q1784816", "wikipedia": "da:Kors\u00f8r"}}, "geometry": {"type": "Point", "coordinates": [11.1425876, 55.3266045]}}, {"type": "Feature", "properties": {"type": "node", "id": 26559290, "tags": {"name": "Kalundborg", "name:de": "Kalundborg", "name:nl": "Kalundborg", "name:ru": "\u041a\u0430\u043b\u0443\u043d\u043d\u0431\u043e\u0440\u0433", "place": "town", "population": "16523", "population:date": "2018-01-01", "source:population": "http://www.statistikbanken.dk/BY1", "wikidata": "Q204957", "wikipedia": "da:Kalundborg"}}, "geometry": {"type": "Point", "coordinates": [11.0993619, 55.6833793]}}, {"type": "Feature", "properties": {"type": "node", "id": 27536827, "tags": {"name": "Slagelse", "name:be": "\u0421\u043b\u0430\u0433\u0435\u043b\u044c\u0441\u044d", "name:de": "Slagelse", "name:ru": "\u0421\u043b\u0430\u0433\u0435\u043b\u044c\u0441\u0435", "place": "town", "population": "33777", "population:date": "2018-01-01", "source:population": "http://www.statistikbanken.dk/BY1", "wikidata": "Q3414556", "wikipedia": "da:Slagelse"}}, "geometry": {"type": "Point", "coordinates": [11.3525415, 55.4061196]}}, {"type": "Feature", "properties": {"type": "node", "id": 26559256, "tags": {"name": "Sor\u00f8", "name:de": "Sor\u00f6", "name:fy": "Sor\u00f8 (plak)", "name:is": "S\u00f3rey", "name:ja": "\u30bd\u30ec", "name:ko": "\uc18c\ub8b0", "name:la": "Sora", "name:lt": "Sor\u0117", "name:mk": "\u0421\u043e\u0440\u0435", "name:nl": "Sor\u00f8", "name:os": "\u0421\u043e\u0440\u0451", "name:ru": "\u0421\u043e\u0440\u0451", "name:sr": "\u0421\u043e\u0440\u0435", "name:zh": "\u7d22\u52d2", "place": "town", "population": "7958", "population:date": "2018-01-01", "source:population": "http://www.statistikbanken.dk/BY1", "wikidata": "Q27858", "wikipedia": "da:Sor\u00f8"}}, "geometry": {"type": "Point", "coordinates": [11.5629363, 55.4365822]}}, {"type": "Feature", "properties": {"type": "node", "id": 21686564, "tags": {"name": "Holb\u00e6k", "name:de": "Holb\u00e4k", "name:ka": "\u10f0\u10dd\u10da\u10d1\u10d4\u10d9\u10d8", "name:lt": "Holbekas", "name:mk": "\u0425\u043e\u043b\u0431\u0435\u043a", "name:nl": "Holb\u00e6k", "name:ru": "\u0425\u043e\u043b\u044c\u0431\u0435\u043a", "name:sr": "\u0425\u043e\u043b\u0431\u0435\u043a", "place": "town", "population": "28264", "population:date": "2018-01-01", "source:population": "http://www.statistikbanken.dk/BY1", "wikidata": "Q28042", "wikipedia": "da:Holb\u00e6k"}}, "geometry": {"type": "Point", "coordinates": [11.7135474, 55.7186117]}}, {"type": "Feature", "properties": {"type": "node", "id": 26559275, "tags": {"name": "Odder", "name:de": "Odder", "name:es": "Odder (ciudad)", "name:nl": "Odder", "name:pl": "Odder (Dania)", "name:sr": "\u041e\u0434\u0435\u0440", "place": "town", "population": "12093", "population:date": "2018-01-01", "source:population": "http://www.statistikbanken.dk/BY1", "wikidata": "Q925736", "wikipedia": "da:Odder (by)"}}, "geometry": {"type": "Point", "coordinates": [10.1513202, 55.975832]}}, {"type": "Feature", "properties": {"type": "node", "id": 26559057, "tags": {"name": "Tranbjerg", "place": "town", "population": "7307", "source": "geonames.org", "wikidata": "Q2329474", "wikipedia": "da:Tranbjerg"}}, "geometry": {"type": "Point", "coordinates": [10.1330099, 56.0905987]}}, {"type": "Feature", "properties": {"type": "node", "id": 2601651305, "tags": {"check_date:population": "2017-08-29", "name": "Beder-Malling", "note": "pr. 2013-01-01 er Beder og Malling at betragte som \u00e9n by", "place": "town", "population": "8387", "source:population": "http://www.statistikbanken.dk/BY1", "wikidata": "Q25043893", "wikipedia": "da:Beder-Malling"}}, "geometry": {"type": "Point", "coordinates": [10.2017147, 56.0494063]}}, {"type": "Feature", "properties": {"type": "node", "id": 416444238, "tags": {"name": "Tilst", "place": "town", "population": "16271", "wikidata": "Q7802966", "wikipedia": "da:Tilst"}}, "geometry": {"type": "Point", "coordinates": [10.1117391, 56.1921152]}}, {"type": "Feature", "properties": {"type": "node", "id": 26559213, "tags": {"name": "Aarhus", "name:ar": "\u0622\u0631\u0647\u0648\u0633", "name:be": "\u041e\u0440\u0445\u0443\u0441", "name:be-tarask": "\u041e\u0440\u0433\u0443\u0441", "name:bg": "\u041e\u0440\u0445\u0443\u0441", "name:da": "Aarhus", "name:de": "Aarhus", "name:el": "\u038f\u03c1\u03c7\u03bf\u03c5\u03c2", "name:eo": "Arhuzo", "name:et": "\u00c5rhus", "name:fa": "\u0622\u0631\u0647\u0648\u0633", "name:he": "\u05d0\u05d5\u05e8\u05d4\u05d5\u05e1", "name:hu": "Aarhus", "name:hy": "\u0555\u0580\u0570\u0578\u0582\u057d", "name:is": "\u00c1r\u00f3sar", "name:ja": "\u30aa\u30fc\u30d5\u30b9", "name:ka": "\u10dd\u10e0\u10f0\u10e3\u10e1\u10d8", "name:ko": "\uc624\ub974\ud6c4\uc2a4", "name:la": "Aarhusium", "name:lt": "Orhusas", "name:lv": "Orh\u016bsa", "name:mk": "\u041e\u0440\u0445\u0443\u0441", "name:mn": "\u041e\u0440\u0445\u0443\u0441", "name:mr": "\u0906\u0930\u094d\u0939\u0941\u0938", "name:nds-nl": "Oarhoes", "name:os": "\u041e\u0440\u0445\u0443\u0441", "name:pnb": "\u0622\u0631\u06c1\u0633", "name:ru": "\u041e\u0440\u0445\u0443\u0441", "name:sr": "\u041e\u0440\u0445\u0443\u0441", "name:sv": "\u00c5rhus", "name:th": "\u0e2d\u0e2d\u0e23\u0e4c\u0e2e\u0e39\u0e2a", "name:uk": "\u041e\u0440\u0445\u0443\u0441", "name:zh": "\u5965\u80e1\u65af", "old_name": "\u00c5rhus;Aarhus;Aros", "old_name:de": "Arenhusen", "place": "city", "population": "273077", "population:date": "2018-01-01", "source:population": "http://www.statistikbanken.dk/BY1", "wikidata": "Q25319", "wikipedia": "da:Aarhus"}}, "geometry": {"type": "Point", "coordinates": [10.2134046, 56.1496278]}}, {"type": "Feature", "properties": {"type": "node", "id": 6121109293, "tags": {"name": "Hinnerup", "place": "town", "population": "7808", "population:date": "2018-04-18", "wikidata": "Q3175755", "wikipedia": "da:Hinnerup"}}, "geometry": {"type": "Point", "coordinates": [10.0688688, 56.2678199]}}, {"type": "Feature", "properties": {"type": "node", "id": 8387660952, "tags": {"name": "Lystrup", "name:zh": "\u5442\u65af\u695a\u666e", "place": "town", "population": "10376", "wikidata": "Q2633183", "wikipedia": "da:Lystrup (Aarhus Kommune)"}}, "geometry": {"type": "Point", "coordinates": [10.238378, 56.2363205]}}, {"type": "Feature", "properties": {"type": "node", "id": 7447416109, "tags": {"alt_name": "Gren\u00e5", "name": "Grenaa", "name:de": "Grenaa", "name:ru": "\u0413\u0440\u0435\u043d\u0430", "place": "town", "population": "14856", "wikidata": "Q3619316", "wikipedia": "da:Grenaa"}}, "geometry": {"type": "Point", "coordinates": [10.8793137, 56.4134419]}}, {"type": "Feature", "properties": {"type": "node", "id": 26559009, "tags": {"name": "Vordingborg", "name:de": "Vordingburg", "name:nl": "Vordingborg", "name:ru": "\u0412\u043e\u0440\u0434\u0438\u043d\u0433\u0431\u043e\u0440\u0433", "name:sr": "\u0412\u043e\u0440\u0434\u0438\u043d\u0433\u0431\u043e\u0440\u0433", "name:zh": "\u6c83\u5c14\u4e01\u5821", "place": "town", "population": "12038", "population:date": "2018-01-01", "source:population": "http://www.statistikbanken.dk/BY1", "wikidata": "Q2608258", "wikipedia": "da:Vordingborg"}}, "geometry": {"type": "Point", "coordinates": [11.9097478, 55.0102518]}}, {"type": "Feature", "properties": {"type": "node", "id": 26559174, "tags": {"name": "N\u00e6stved", "name:de": "N\u00e4stved", "name:ja": "\u30cd\u30b9\u30c8\u30f4\u30a7\u30ba", "name:ka": "\u10dc\u10d4\u10e1\u10e2\u10d5\u10d4\u10d3\u10d8", "name:ko": "\ub124\uc2a4\ud2b8\ubca0\ub4dc", "name:lt": "Nestvedas", "name:mk": "\u041d\u0435\u0441\u0442\u0432\u0435\u0434", "name:nl": "N\u00e6stved", "name:ru": "\u041d\u0435\u0441\u0442\u0432\u0435\u0434", "name:sr": "\u041d\u0435\u0441\u0442\u0432\u0435\u0434", "name:zh": "\u5948\u65af\u7279\u97e6\u5179", "place": "town", "population": "43508", "population:date": "2018-01-01", "source:population": "http://www.statistikbanken.dk/BY1", "wikidata": "Q21178", "wikipedia": "da:N\u00e6stved"}}, "geometry": {"type": "Point", "coordinates": [11.7674102, 55.2328252]}}, {"type": "Feature", "properties": {"type": "node", "id": 26559092, "tags": {"name": "Haslev", "name:de": "Haslev", "name:ru": "\u0425\u0430\u0441\u043b\u0435\u0432", "name:sr": "\u0425\u0430\u0441\u043b\u0435\u0432", "place": "town", "population": "11880", "population:date": "2018-01-01", "source:population": "http://www.statistikbanken.dk/BY1", "wikidata": "Q1016690", "wikipedia": "da:Haslev"}}, "geometry": {"type": "Point", "coordinates": [11.9567297, 55.3271115]}}, {"type": "Feature", "properties": {"type": "node", "id": 25232818, "tags": {"name": "Ringsted", "name:de": "Ringsted", "name:ka": "\u10e0\u10d8\u10dc\u10d2\u10e1\u10e2\u10d4\u10d3\u10d8", "name:nl": "Ringsted", "name:ru": "\u0420\u0438\u043d\u0433\u0441\u0442\u0435\u0434", "name:zh": "\u7075\u65af\u6cf0\u5179", "place": "town", "population": "22657", "population:date": "2018-01-01", "source:population": "http://www.statistikbanken.dk/BY1", "wikidata": "Q283658", "wikipedia": "da:Ringsted"}}, "geometry": {"type": "Point", "coordinates": [11.7975218, 55.446817]}}, {"type": "Feature", "properties": {"type": "node", "id": 21040334, "tags": {"name": "Roskilde", "name:cv": "\u0420\u043e\u0441\u043a\u0438\u043b\u044c\u0434\u0435", "name:is": "Hr\u00f3arskelda", "name:ja": "\u30ed\u30b9\u30ad\u30ec", "name:ka": "\u10e0\u10dd\u10e1\u10d9\u10d8\u10da\u10d4", "name:ko": "\ub85c\uc2a4\ud0ac\ub808", "name:lt": "Roskild\u0117", "name:mk": "\u0420\u043e\u0441\u043a\u0438\u043b\u0434\u0435", "name:ru": "\u0420\u043e\u0441\u043a\u0438\u043b\u043b\u0435", "name:sr": "\u0420\u043e\u0441\u043a\u0438\u043b\u0434\u0435", "name:th": "\u0e23\u0e2d\u0e2a\u0e01\u0e34\u0e25\u0e14\u0e4c", "name:uk": "\u0420\u043e\u0441\u043a\u0456\u043b\u043b\u0435", "name:zh": "\u7f57\u65af\u57fa\u52d2", "place": "city", "population": "50781", "population:date": "2018-01-01", "source:population": "http://www.statistikbanken.dk/BY1", "wikidata": "Q26563", "wikipedia": "da:Roskilde"}}, "geometry": {"type": "Point", "coordinates": [12.0819247, 55.6433478]}}, {"type": "Feature", "properties": {"type": "node", "id": 26559270, "tags": {"name": "Jyllinge", "name:de": "Jyllinge", "name:lv": "Jilinge", "place": "town", "population": "10148", "population:date": "2018-01-01", "source:population": "http://www.statistikbanken.dk/BY1", "wikidata": "Q2546789", "wikipedia": "da:Jyllinge"}}, "geometry": {"type": "Point", "coordinates": [12.1086079, 55.7535209]}}, {"type": "Feature", "properties": {"type": "node", "id": 26559214, "tags": {"name": "K\u00f8ge", "name:de": "K\u00f6ge", "name:ja": "\u30ad\u30e5\u30fc\u30b2", "name:ka": "\u10d9\u10d4\u10d2\u10d4", "name:ko": "\ucf54\uc774\uc5d0", "name:lt": "Kiog\u0117", "name:mk": "\u041a\u0435\u0433\u0435", "name:nl": "K\u00f8ge", "name:ru": "\u041a\u0451\u0433\u0435", "name:sr": "\u041a\u0435\u0458\u0435", "name:zh": "\u514b\u5384", "place": "town", "population": "37040", "population:date": "2018-01-01", "source:population": "http://www.statistikbanken.dk/BY1", "wikidata": "Q21184", "wikipedia": "da:K\u00f8ge"}}, "geometry": {"type": "Point", "coordinates": [12.1818964, 55.4565009]}}, {"type": "Feature", "properties": {"type": "node", "id": 1749628534, "tags": {"name": "Solr\u00f8d Strand", "name:de": "Solr\u00f6d Strand", "name:sr": "\u0421\u043e\u043b\u0440\u0435\u0434 \u0421\u0442\u0440\u0430\u043d\u0434", "place": "town", "population": "16255", "population:date": "2018-01-01", "source:population": "http://www.statistikbanken.dk/BY1", "wikidata": "Q2229515", "wikipedia": "da:Solr\u00f8d Strand"}}, "geometry": {"type": "Point", "coordinates": [12.2193108, 55.534253]}}, {"type": "Feature", "properties": {"type": "node", "id": 26559293, "tags": {"name": "Greve Strand", "name:de": "Greve", "name:ka": "\u10d2\u10e0\u10d0\u10d5\u10d4-\u10e1\u10e2\u10e0\u10d0\u10dc\u10d8", "name:ru": "\u0413\u0440\u0435\u0432\u0435 \u0421\u0442\u0440\u0430\u043d\u043d", "place": "town", "population": "42824", "population:date": "2018-01-01", "source:population": "http://www.statistikbanken.dk/BY1", "wikidata": "Q2380509", "wikipedia": "da:Greve Strand"}}, "geometry": {"type": "Point", "coordinates": [12.2999286, 55.5833746]}}, {"type": "Feature", "properties": {"type": "node", "id": 291733919, "tags": {"name": "Hedehusene", "name:de": "Hedehusene", "place": "town", "population": "11990", "population:date": "2018-01-01", "source:population": "http://www.statistikbanken.dk/BY1", "wikidata": "Q2248624", "wikipedia": "da:Hedehusene"}}, "geometry": {"type": "Point", "coordinates": [12.1971455, 55.6520089]}}, {"type": "Feature", "properties": {"type": "node", "id": 26559273, "tags": {"alt_name": "T\u00e5strup", "name": "Taastrup", "name:de": "Taastrup", "name:en": "Taastrup", "name:is": "Taastrup", "name:ka": "\u10e2\u10dd\u10e1\u10e2\u10e0\u10e3\u10de\u10d8", "name:ms": "Taastrup", "name:nl": "Taastrup", "name:no": "Taastrup", "name:pl": "Taastrup", "name:ro": "Taastrup", "name:ru": "\u0422\u043e\u0441\u0442\u0440\u0443\u043f", "name:vi": "Taastrup", "name:vo": "Taastrup", "old_name": "T\u00e5strup", "place": "town", "population": "34470", "population:date": "2018-01-01", "source:population": "http://www.statistikbanken.dk/BY1", "wikidata": "Q20999", "wikipedia": "da:Taastrup"}}, "geometry": {"type": "Point", "coordinates": [12.292049, 55.6522136]}}, {"type": "Feature", "properties": {"type": "node", "id": 25275433, "tags": {"name": "\u00d8lstykke", "note": "\u00d8lstykke er fra 1. januar 2017 af Styrelsen for Dataforsyning og Effektivisering igen klassificeret som en selvst\u00e6ndig by", "place": "town", "population": "14833", "population:date": "2017-01-01", "source:population": "http://www.statistikbanken.dk/BY1", "wikidata": "Q9393687", "wikipedia": "da:\u00d8lstykke"}}, "geometry": {"type": "Point", "coordinates": [12.1717405, 55.7765597]}}, {"type": "Feature", "properties": {"type": "node", "id": 26559142, "tags": {"name": "Sm\u00f8rumnedre", "note": "byen befinder sig i 3 kommuner", "place": "town", "population": "19816", "population:date": "2018-01-01", "source:population": "http://www.statistikbanken.dk/BY1", "wikidata": "Q1715139", "wikipedia": "da:Sm\u00f8rumnedre"}}, "geometry": {"type": "Point", "coordinates": [12.2998472, 55.7366023]}}, {"type": "Feature", "properties": {"type": "node", "id": 26559251, "tags": {"name": "M\u00e5l\u00f8v", "place": "town", "population": "8513", "source": "geonames.org", "wikidata": "Q6950010", "wikipedia": "da:M\u00e5l\u00f8v"}}, "geometry": {"type": "Point", "coordinates": [12.3192001, 55.7493484]}}, {"type": "Feature", "properties": {"type": "node", "id": 13707878, "tags": {"admin_level": "2", "alt_name:gl": "Copenhague", "capital": "yes", "country": "DK", "ele": "24", "name": "K\u00f8benhavn", "name:am": "\u12ae\u1350\u1295\u1200\u1308\u1295", "name:an": "Copenaguen", "name:ang": "C\u0113apmannh\u00e6fen", "name:ar": "\u0643\u0648\u0628\u0646\u0647\u0627\u063a\u0646", "name:arc": "\u0729\u0718\u0726\u0722\u0717\u0710\u0713\u0722", "name:arz": "\u0643\u0648\u0628\u064a\u0646\u0647\u0627\u062c\u064a\u0646", "name:ast": "Conpen\u1e25ague", "name:bat-smg": "Kuopenhaga", "name:be": "\u041a\u0430\u043f\u0435\u043d\u0433\u0430\u0433\u0435\u043d", "name:be-tarask": "\u041a\u0430\u043f\u044d\u043d\u0433\u0430\u0433\u0435\u043d", "name:bg": "\u041a\u043e\u043f\u0435\u043d\u0445\u0430\u0433\u0435\u043d", "name:bn": "\u0995\u09cb\u09aa\u09c7\u09a8\u09b9\u09c7\u0997\u09c7\u09a8", "name:bo": "\u0f41\u0f7c\u0f0b\u0f55\u0f7a\u0f53\u0f0b\u0f67\u0f0b\u0f40\u0f7a\u0f53\u0f0d", "name:bs": "Kopenhagen", "name:ca": "Copenhaguen", "name:ckb": "\u06a9\u06c6\u067e\u0646\u06be\u0627\u06af\u0646", "name:co": "Copenaghen", "name:cs": "Koda\u0148", "name:csb": "K\u00f2penhaga", "name:cu": "\u041a\u043e\u0431\u0454\u043d\u0445\u0430\u0432\u043d\u044a", "name:cv": "\u041a\u043e\u043f\u0435\u043d\u0433\u0430\u0433\u0435\u043d", "name:cy": "Copenhagen", "name:da": "K\u00f8benhavn", "name:de": "Kopenhagen", "name:diq": "Kopenhag", "name:ee": "Copenhagen", "name:el": "\u039a\u03bf\u03c0\u03b5\u03b3\u03c7\u03ac\u03b3\u03b7", "name:en": "Copenhagen", "name:eo": "Kopenhago", "name:es": "Copenhague", "name:et": "Kopenhaagen", "name:eu": "Kopenhage", "name:ext": "Copenagui", "name:fa": "\u06a9\u067e\u0646\u0647\u0627\u06af", "name:fi": "K\u00f6\u00f6penhamina", "name:fiu-vro": "Kop\u00f5nhaag\u00f5n", "name:fo": "Keypmannahavn", "name:fr": "Copenhague", "name:frr": "Kopenhuuwen", "name:fy": "Kopenhagen", "name:ga": "C\u00f3banh\u00e1van", "name:gd": "Copenhagen", "name:gl": "Copenhaguen", "name:gv": "K\u00f8benhavn", "name:he": "\u05e7\u05d5\u05e4\u05e0\u05d4\u05d2\u05df", "name:hi": "\u0915\u094b\u092a\u0928\u0939\u0947\u0917\u0928", "name:hif": "Copenhagen", "name:hr": "Kopenhagen", "name:ht": "Kop\u00e8nag", "name:hu": "Koppenh\u00e1ga", "name:hy": "\u053f\u0578\u057a\u0565\u0576\u0570\u0561\u0563\u0565\u0576", "name:ia": "Copenhagen", "name:ilo": "Copenhagen", "name:io": "K\u00f8benhavn", "name:is": "Kaupmannah\u00f6fn", "name:it": "Copenaghen", "name:ja": "\u30b3\u30da\u30f3\u30cf\u30fc\u30b2\u30f3", "name:ka": "\u10d9\u10dd\u10de\u10d4\u10dc\u10f0\u10d0\u10d2\u10d4\u10dc\u10d8", "name:kk": "\u041a\u043e\u043f\u0435\u043d\u0433\u0430\u0433\u0435\u043d", "name:kl": "K\u00f8benhavn", "name:kn": "\u0c95\u0ccb\u0caa\u0ca8\u0ccd\u0cb9\u0cbe\u0c97\u0cc6\u0ca8\u0ccd", "name:ko": "\ucf54\ud39c\ud558\uac90", "name:ku": "Kopenhag", "name:kv": "\u041a\u043e\u043f\u0435\u043d\u0433\u0430\u0433\u0435\u043d", "name:kw": "Kopenhavn", "name:ky": "\u041a\u043e\u043f\u0435\u043d\u0433\u0430\u0433\u0435\u043d", "name:la": "Hafnia", "name:lb": "Kopenhagen", "name:lij": "Copenaghen", "name:lmo": "Cupenaghen", "name:lt": "Kopenhaga", "name:ltg": "Kopenhaga", "name:lv": "Kopenh\u0101gena", "name:mg": "Kaopenagy", "name:mi": "Copenhagen", "name:mk": "\u041a\u043e\u043f\u0435\u043d\u0445\u0430\u0433\u0435\u043d", "name:ml": "\u0d15\u0d4b\u0d2a\u0d4d\u0d2a\u0d7b\u0d39\u0d47\u0d17\u0d7b", "name:mr": "\u0915\u094b\u092a\u0928\u0939\u0947\u0917\u0928", "name:mt": "Kopen\u0127agen", "name:my": "\u1000\u102d\u102f\u1015\u1004\u103a\u101f\u1031\u1002\u1004\u103a\u1019\u103c\u102d\u102f\u1037", "name:nah": "Copenague", "name:nan": "Copenhagen", "name:nap": "Copenaghen", "name:nds": "Kopenhagen", "name:nl": "Kopenhagen", "name:nn": "K\u00f8benhavn", "name:no": "K\u00f8benhavn", "name:nov": "K\u00f8benhavn", "name:oc": "Copenaga", "name:os": "\u041a\u043e\u043f\u0435\u043d\u0433\u0430\u0433\u0435\u043d", "name:pl": "Kopenhaga", "name:pms": "Copen\u00e0ghen", "name:pnb": "\u06a9\u0648\u067e\u0646 \u06c1\u06cc\u06af\u0646", "name:pt": "Copenhaga", "name:qu": "K\u00f8benhavn", "name:ro": "Copenhaga", "name:roa-rup": "Copenhagen", "name:ru": "\u041a\u043e\u043f\u0435\u043d\u0433\u0430\u0433\u0435\u043d", "name:sa": "\u0915\u094b\u092a\u0928\u0939\u093e\u0917\u0928", "name:sah": "\u041a\u043e\u043f\u0435\u043d\u04bb\u0430\u0433\u0435\u043d", "name:sc": "Copenaghen", "name:scn": "Copenaghen", "name:sco": "Copenhagen", "name:se": "K\u00f8benh\u00e1pman", "name:simple": "Copenhagen", "name:sk": "Koda\u0148", "name:sl": "K\u00f8benhavn", "name:so": "Kobanhaygan", "name:sr": "\u041a\u043e\u043f\u0435\u043d\u0445\u0430\u0433\u0435\u043d", "name:st": "Copenhagen", "name:sv": "K\u00f6penhamn", "name:szl": "Kopynhaga", "name:ta": "\u0b95\u0bcb\u0baa\u0ba9\u0bbe\u0bb5\u0ba9\u0bcd", "name:te": "\u0c15\u0c4b\u0c2a\u0c46\u0c28\u0c4d\u200c\u0c39\u0c3e\u0c17\u0c28\u0c4d", "name:tg": "\u041a\u043e\u043f\u0435\u043d\u04b3\u0430\u0433\u0435\u043d", "name:th": "\u0e42\u0e04\u0e40\u0e1b\u0e19\u0e40\u0e2e\u0e40\u0e01\u0e19", "name:tl": "Copenhagen", "name:tr": "Kopenhag", "name:tt": "\u041a\u043e\u043f\u0435\u043d\u0433\u0430\u0433\u0435\u043d", "name:tzl": "Cj\u00f6vnahaun", "name:udm": "\u041a\u043e\u043f\u0435\u043d\u0433\u0430\u0433\u0435\u043d", "name:ug": "Kop\u00e9nhag\u00e9n", "name:uk": "\u041a\u043e\u043f\u0435\u043d\u0433\u0430\u0433\u0435\u043d", "name:ur": "\u06a9\u0648\u067e\u0646 \u06c1\u06cc\u06af\u0646", "name:vec": "Copenaghen", "name:vep": "Kopengagen", "name:vi": "Copenhagen", "name:vo": "K\u00f8benhavn", "name:war": "Copenhagen", "name:xmf": "\u10d9\u10dd\u10de\u10d4\u10dc\u10f0\u10d0\u10d2\u10d4\u10dc\u10d8", "name:yi": "\u05e7\u05d0\u05e4\u05e0\u05d4\u05d0\u05d2\u05df", "name:yo": "Copenhagen", "name:yue": "\u54e5\u672c\u54c8\u6839", "name:zh": "\u54e5\u672c\u54c8\u6839", "place": "city", "population": "613288", "population:date": "2018-01-01", "source:population": "http://www.statistikbanken.dk/BY1", "wikidata": "Q1748", "wikipedia": "da:K\u00f8benhavn"}}, "geometry": {"type": "Point", "coordinates": [12.5700724, 55.6867243]}}, {"type": "Feature", "properties": {"type": "node", "id": 26559081, "tags": {"name": "V\u00e6rl\u00f8se", "name:de": "V\u00e6rl\u00f8se Kommune", "name:pl": "Gmina V\u00e6rl\u00f8se", "place": "town", "population": "13070", "population:date": "2018-01-01", "source:population": "http://www.statistikbanken.dk/BY1", "wikidata": "Q3171395", "wikipedia": "da:V\u00e6rl\u00f8se"}}, "geometry": {"type": "Point", "coordinates": [12.383333, 55.783333]}}, {"type": "Feature", "properties": {"type": "node", "id": 160744272, "tags": {"name": "Drag\u00f8r", "name:de": "Drag\u00f6r", "name:ru": "\u0414\u0440\u0430\u0433\u0451\u0440", "place": "town", "population": "12085", "population:date": "2018-01-01", "source:population": "http://www.statistikbanken.dk/BY1", "wikidata": "Q1255278", "wikipedia": "da:Drag\u00f8r"}}, "geometry": {"type": "Point", "coordinates": [12.6719953, 55.592487]}}, {"type": "Feature", "properties": {"type": "node", "id": 26559061, "tags": {"name": "Hundested", "name:de": "Hundested", "name:ru": "\u0425\u0443\u043d\u043d\u0435\u0441\u0442\u0435\u0434", "place": "town", "population": "8613", "population:date": "2018-01-01", "source:population": "http://www.statistikbanken.dk/BY1", "wikidata": "Q1020031", "wikipedia": "da:Hundested"}}, "geometry": {"type": "Point", "coordinates": [11.8515199, 55.9664823]}}, {"type": "Feature", "properties": {"type": "node", "id": 25435368, "tags": {"name": "Frederikssund", "name:de": "Frederikssund", "name:nl": "Frederikssund", "name:no": "Frederikssund (by)", "name:ru": "\u0424\u0440\u0435\u0434\u0435\u0440\u0438\u043a\u0441\u0441\u0443\u043d\u043d", "name:sr": "\u0424\u0440\u0435\u0434\u0435\u0440\u0438\u043a\u0441\u0443\u043d\u0434", "place": "town", "population": "16254", "population:date": "2018-01-01", "source:population": "http://www.statistikbanken.dk/BY1", "wikidata": "Q3223801", "wikipedia": "da:Frederikssund"}}, "geometry": {"type": "Point", "coordinates": [12.063595, 55.8417752]}}, {"type": "Feature", "properties": {"type": "node", "id": 26559074, "tags": {"name": "Frederiksv\u00e6rk", "name:de": "Frederiksv\u00e4rk", "place": "town", "population": "12451", "population:date": "2018-01-01", "source:population": "http://www.statistikbanken.dk/BY1", "wikidata": "Q1796191", "wikipedia": "da:Frederiksv\u00e6rk"}}, "geometry": {"type": "Point", "coordinates": [12.0210564, 55.9737042]}}, {"type": "Feature", "properties": {"type": "node", "id": 26559262, "tags": {"name": "Farum", "name:de": "Farum", "name:el": "\u03a6\u03ac\u03c1\u03bf\u03c5\u03bc", "name:lt": "Farumas", "name:ru": "\u0424\u0430\u0440\u0443\u043c", "name:zh": "\u6cd5\u9c81\u59c6", "place": "town", "population": "20302", "population:date": "2018-01-01", "source:population": "http://www.statistikbanken.dk/BY1", "wikidata": "Q3554742", "wikipedia": "da:Farum"}}, "geometry": {"type": "Point", "coordinates": [12.3702505, 55.8101232]}}, {"type": "Feature", "properties": {"type": "node", "id": 2603507785, "tags": {"loc_name": "Aller\u00f8d", "name": "Liller\u00f8d", "place": "town", "population": "16878", "population:date": "2018-01-01", "source:population": "http://www.statistikbanken.dk/BY1", "wikidata": "Q656234", "wikipedia": "da:Liller\u00f8d"}}, "geometry": {"type": "Point", "coordinates": [12.3556762, 55.8707776]}}, {"type": "Feature", "properties": {"type": "node", "id": 26559288, "tags": {"alt_name": "Frederiksborg", "name": "Hiller\u00f8d", "name:ar": "\u0647\u064a\u0644\u064a\u0631\u0648\u062f", "name:de": "Hiller\u00f6d", "name:he": "\u05d4\u05d9\u05dc\u05e8\u05d5\u05d3", "name:id": "Munisipalitas Hiller\u00f8d", "name:ja": "\u30d2\u30ec\u30ec\u30ba", "name:ka": "\u10f0\u10d8\u10da\u10d4\u10e0\u10d4\u10d3\u10d8", "name:ko": "\ud790\ub808\ub8b0\ub4dc", "name:lt": "Hileriodas", "name:mk": "\u0425\u0438\u043b\u0435\u0440\u0435\u0434", "name:nl": "Hiller\u00f8d", "name:ru": "\u0425\u0438\u043b\u043b\u0435\u0440\u0451\u0434", "name:sq": "Hillerod", "name:sr": "\u0425\u0438\u043b\u0435\u0440\u0435\u0434", "name:zh": "\u5e0c\u52d2\u52d2", "place": "town", "population": "32698", "population:date": "2018-01-01", "source:population": "http://www.statistikbanken.dk/BY1", "wikidata": "Q27425", "wikipedia": "da:Hiller\u00f8d"}}, "geometry": {"type": "Point", "coordinates": [12.3063909, 55.9285735]}}, {"type": "Feature", "properties": {"type": "node", "id": 26559045, "tags": {"name": "Birker\u00f8d", "name:de": "Birker\u00f6d", "name:ru": "\u0411\u0438\u0440\u043a\u0435\u0440\u0451\u0434", "place": "town", "population": "20539", "population:date": "2018-01-01", "source:population": "http://www.statistikbanken.dk/BY1", "wikidata": "Q865630", "wikipedia": "da:Birker\u00f8d"}}, "geometry": {"type": "Point", "coordinates": [12.4287796, 55.8403369]}}, {"type": "Feature", "properties": {"type": "node", "id": 26559159, "tags": {"name": "H\u00f8rsholm", "name:de": "Hirschholm", "name:ka": "\u10f0\u10d4\u10e0\u10e1\u10f0\u10dd\u10da\u10db\u10d8", "name:lt": "Hiorsholmas", "name:ru": "\u0425\u0451\u0440\u0441\u0445\u043e\u043b\u044c\u043c", "note": "Byen befinder sig i tre kommuner", "place": "town", "population": "47489", "population:date": "2018-01-01", "source:population": "http://www.statistikbanken.dk/BY1", "wikidata": "Q20835", "wikipedia": "da:H\u00f8rsholm"}}, "geometry": {"type": "Point", "coordinates": [12.5000112, 55.8832986]}}, {"type": "Feature", "properties": {"type": "node", "id": 26559063, "tags": {"name": "Fredensborg", "place": "town", "population": "8611", "population:date": "2018-01-01", "source:population": "http://www.statistikbanken.dk/BY1", "wikidata": "Q565436", "wikipedia": "da:Fredensborg"}}, "geometry": {"type": "Point", "coordinates": [12.4050622, 55.9740003]}}, {"type": "Feature", "properties": {"type": "node", "id": 26559100, "tags": {"name": "Niv\u00e5", "place": "town", "population": "7821", "source": "Statistikbanken Tabel BEF44", "wikidata": "Q2926034", "wikipedia": "da:Niv\u00e5"}}, "geometry": {"type": "Point", "coordinates": [12.5013529, 55.935056]}}, {"type": "Feature", "properties": {"type": "node", "id": 26559049, "tags": {"name": "Humleb\u00e6k", "place": "town", "population": "9643", "population:date": "2018-01-01", "source:population": "http://www.statistikbanken.dk/BY1", "wikidata": "Q2631512", "wikipedia": "da:Humleb\u00e6k"}}, "geometry": {"type": "Point", "coordinates": [12.5305462, 55.9618789]}}, {"type": "Feature", "properties": {"type": "node", "id": 26559025, "tags": {"name": "Helsinge", "name:de": "Helsinge", "name:pl": "Gmina Helsinge", "place": "town", "population": "8229", "population:date": "2018-01-01", "source:population": "http://www.statistikbanken.dk/BY1", "wikidata": "Q3173563", "wikipedia": "da:Helsinge"}}, "geometry": {"type": "Point", "coordinates": [12.1951087, 56.0211073]}}, {"type": "Feature", "properties": {"type": "node", "id": 21040320, "tags": {"name": "Helsing\u00f8r", "name:de": "Helsing\u00f6r", "name:en": "Elsinore", "name:es": "Elsinor", "name:fr": "Elseneur", "name:ia": "Elsinor", "name:is": "Helsingjaeyri", "name:it": "Elsinore", "name:ja": "\u30d8\u30eb\u30b7\u30f3\u30b2\u30eb", "name:ka": "\u10f0\u10d4\u10da\u10e1\u10d8\u10dc\u10d2\u10d4\u10e0\u10d8", "name:ko": "\ud5ec\uc2f1\uc678\ub974", "name:lmo": "Elsin\u00f6r", "name:lt": "Helsingioras", "name:mk": "\u0425\u0435\u043b\u0441\u0438\u043d\u0433\u0435\u0440", "name:pt": "Helsingor", "name:ru": "\u0425\u0435\u043b\u044c\u0441\u0438\u043d\u0433\u0451\u0440", "name:sr": "\u0425\u0435\u043b\u0441\u0438\u043d\u0433\u0435\u0440", "name:sv": "Helsing\u00f6r", "name:th": "\u0e40\u0e2e\u0e25\u0e0b\u0e34\u0e07\u0e40\u0e07\u0e2d\u0e23\u0e4c", "name:uk": "\u0413\u0435\u043b\u044c\u0441\u0456\u043d\u0433\u0435\u0440", "name:yue": "\u5e0c\u661f\u52a0", "name:zh": "\u8d6b\u723e\u8f9b\u683c", "place": "town", "population": "47364", "population:date": "2018-01-01", "source:population": "http://www.statistikbanken.dk/BY1", "wikidata": "Q26881", "wikipedia": "da:Helsing\u00f8r"}}, "geometry": {"type": "Point", "coordinates": [12.6136135, 56.0345277]}}, {"type": "Feature", "properties": {"type": "node", "id": 249523561, "tags": {"name": "R\u00f8nne", "name:lt": "Rion\u0117", "place": "town", "population": "13737", "population:date": "2018-01-01", "source:population": "http://www.statistikbanken.dk/BY1", "wikidata": "Q690062", "wikipedia": "da:R\u00f8nne"}}, "geometry": {"type": "Point", "coordinates": [14.7060906, 55.0994511]}}, {"type": "Feature", "properties": {"type": "node", "id": 2251092237, "tags": {"name": "Thisted", "name:de": "Thisted", "name:fi": "Thistedin kunta", "name:ko": "\ud2f0\uc2a4\ud14c\ub4dc", "name:nl": "Thisted", "name:ru": "\u0422\u0438\u0441\u0442\u0435\u0434", "place": "town", "population": "13416", "population:date": "2018-01-01", "source:population": "http://www.statistikbanken.dk/BY1", "wikidata": "Q1008152", "wikipedia": "da:Thisted"}}, "geometry": {"type": "Point", "coordinates": [8.6848749, 56.9562093]}}, {"type": "Feature", "properties": {"type": "node", "id": 26559261, "tags": {"alt_name": "Nykoebing Mors", "name": "Nyk\u00f8bing M", "name:da": "Nyk\u00f8bing Mors", "name:de": "Nyk\u00f6bing Mors", "name:ja": "\u30cb\u30e5\u30fc\u30af\u30d3\u30f3\u30fb\u30e2\u30fc\u30b9", "official_name": "Nyk\u00f8bing Mors", "place": "town", "population": "9173", "population:date": "2018-01-01", "source:population": "http://www.statistikbanken.dk/BY1", "wikidata": "Q1019481", "wikipedia": "da:Nyk\u00f8bing Mors"}}, "geometry": {"type": "Point", "coordinates": [8.8594834, 56.7943811]}}, {"type": "Feature", "properties": {"type": "node", "id": 2259729134, "tags": {"name": "Aars", "name:de": "Aars", "name:ja": "\u30a2\u30fc\u30b9 (\u30c7\u30f3\u30de\u30fc\u30af)", "name:nl": "Aars", "name:nn": "\u00c5rs", "name:ru": "\u041e\u0440\u0441", "name:sv": "\u00c5rs", "place": "town", "population": "8301", "population:date": "2018-01-01", "source:population": "http://www.statistikbanken.dk/BY1", "wikidata": "Q303066", "wikipedia": "da:Aars"}}, "geometry": {"type": "Point", "coordinates": [9.5168986, 56.8033777]}}, {"type": "Feature", "properties": {"type": "node", "id": 8015510456, "tags": {"name": "St\u00f8vring", "place": "town", "population": "6988", "wikidata": "Q3413440", "wikipedia": "da:St\u00f8vring"}}, "geometry": {"type": "Point", "coordinates": [9.833064, 56.8847204]}}, {"type": "Feature", "properties": {"type": "node", "id": 2247048364, "tags": {"alt_name": "Svenstrup J", "name": "Svenstrup", "place": "town", "population": "7056", "wikidata": "Q3198692", "wikipedia": "da:Svenstrup (Aalborg Kommune)"}}, "geometry": {"type": "Point", "coordinates": [9.8525837, 56.9773211]}}, {"type": "Feature", "properties": {"type": "node", "id": 2247730880, "tags": {"alt_name": "\u00c5lborg", "capital": "4", "name": "Aalborg", "name:ar": "\u0622\u0644\u0628\u0648\u0631\u063a", "name:bg": "\u041e\u043b\u0431\u043e\u0440", "name:el": "\u0386\u03bb\u03bc\u03c0\u03bf\u03c1\u03b3\u03ba", "name:et": "\u00c5lborg", "name:fa": "\u0622\u0644\u0628\u0648\u0631\u06af", "name:he": "\u05d0\u05d5\u05dc\u05d1\u05d5\u05e8\u05d2", "name:hu": "Aalborg", "name:hy": "\u0555\u056c\u0562\u0578\u0580\u0563", "name:is": "\u00c1laborg", "name:ja": "\u30aa\u30fc\u30eb\u30dc\u30fc", "name:ka": "\u10dd\u10da\u10d1\u10dd\u10e0\u10d2\u10d8", "name:kk": "\u041e\u043b\u044c\u0431\u043e\u0440\u0433", "name:ko": "\uc62c\ubcf4\ub974", "name:lmo": "\u00c5lborg", "name:lt": "Olborgas", "name:lv": "Olborga", "name:mk": "\u0410\u0430\u043b\u0431\u043e\u0440\u0433", "name:os": "\u041e\u043b\u044c\u0431\u043e\u0440\u0433", "name:pnb": "\u0622\u0644\u0628\u0631\u06af", "name:ru": "\u041e\u043b\u044c\u0431\u043e\u0440\u0433", "name:sr": "\u041e\u043b\u0431\u043e\u0440\u0433", "name:sv": "\u00c5lborg", "name:th": "\u0e2d\u0e2d\u0e25\u0e1a\u0e2d\u0e23\u0e4c", "name:uk": "\u041e\u043b\u044c\u0431\u043e\u0440\u0433", "name:zh": "\u5965\u5c14\u5821", "place": "city", "population": "114194", "population:date": "2018-01-01", "ref:LOCODE": "DKAAL", "source:population": "http://www.statistikbanken.dk/BY1", "wikidata": "Q25410", "wikipedia": "da:Aalborg"}}, "geometry": {"type": "Point", "coordinates": [9.9215263, 57.0462626]}}, {"type": "Feature", "properties": {"type": "node", "id": 2246075609, "tags": {"name": "N\u00f8rresundby", "name:de": "N\u00f6rresundby", "name:ka": "\u10dc\u10d4\u10e0\u10d4\u10e1\u10e3\u10dc\u10d1\u10d8\u10e3", "place": "town", "population": "22859", "population:date": "2018-01-01", "source:population": "http://www.statistikbanken.dk/BY1", "wikidata": "Q1246235", "wikipedia": "da:N\u00f8rresundby"}}, "geometry": {"type": "Point", "coordinates": [9.9241319, 57.0607251]}}, {"type": "Feature", "properties": {"type": "node", "id": 2237916793, "tags": {"name": "Br\u00f8nderslev", "name:de": "Br\u00f6nderslev", "name:nl": "Br\u00f8nderslev", "name:sr": "\u0411\u0440\u0435\u043d\u0434\u0435\u0440\u0441\u043b\u0435\u0432", "place": "town", "population": "12598", "population:date": "2018-01-01", "source:population": "http://www.statistikbanken.dk/BY1", "wikidata": "Q995880", "wikipedia": "da:Br\u00f8nderslev"}}, "geometry": {"type": "Point", "coordinates": [9.9448631, 57.2700129]}}, {"type": "Feature", "properties": {"type": "node", "id": 2222367820, "tags": {"name": "Hj\u00f8rring", "name:de": "Hj\u00f6rring", "name:ka": "\u10d8\u10d4\u10e0\u10d8\u10dc\u10d2\u10d8", "name:mk": "\u0408\u0435\u0440\u0438\u043d\u0433", "name:nl": "Hj\u00f8rring", "name:ru": "\u0419\u0451\u0440\u0440\u0438\u043d\u0433", "name:sr": "\u0408\u0435\u0440\u0438\u043d\u0433", "name:sv": "Hj\u00f6rring", "place": "town", "population": "25994", "population:date": "2018-01-01", "source:population": "http://www.statistikbanken.dk/BY1", "wikidata": "Q21185", "wikipedia": "da:Hj\u00f8rring"}}, "geometry": {"type": "Point", "coordinates": [9.9855998, 57.457183]}}, {"type": "Feature", "properties": {"type": "node", "id": 2264161478, "tags": {"name": "Hadsund", "name:de": "Hadsund", "name:ka": "\u10f0\u10d0\u10d3\u10e1\u10e3\u10dc\u10d8", "name:kk": "\u0425\u0430\u0434\u0441\u0443\u043d\u043d", "name:lt": "Hadsundas", "name:mk": "\u0425\u0430\u0434\u0441\u0443\u043d\u043d", "name:nl": "Hadsund", "name:ru": "\u0425\u0430\u0434\u0441\u0443\u043d\u043d", "name:sr": "\u0425\u0430\u0434\u0441\u0443\u043d\u0434", "name:yue": "\u4e5e\u4fe1", "name:zh": "\u4e5e\u4fe1", "place": "town", "population": "5003", "wikidata": "Q663011", "wikipedia": "da:Hadsund"}}, "geometry": {"type": "Point", "coordinates": [10.1151108, 56.7193519]}}, {"type": "Feature", "properties": {"type": "node", "id": 2212804475, "tags": {"name": "S\u00e6by", "place": "town", "population": "8871", "population:date": "2018-01-01", "source:population": "http://www.statistikbanken.dk/BY1", "wikidata": "Q346802", "wikipedia": "da:S\u00e6by"}}, "geometry": {"type": "Point", "coordinates": [10.5174617, 57.3316758]}}, {"type": "Feature", "properties": {"type": "node", "id": 2211312681, "tags": {"name": "Frederikshavn", "name:de": "Frederikshavn", "name:is": "Fri\u00f0riksh\u00f6fn", "name:ja": "\u30d5\u30ec\u30bc\u30ea\u30af\u30b9\u30cf\u30a6\u30f3", "name:ka": "\u10e4\u10e0\u10d4\u10d3\u10d4\u10e0\u10d8\u10e5\u10e1\u10f0\u10d0\u10d5\u10dc\u10d8", "name:ko": "\ud504\ub808\ub370\ub9ad\uc2a4\ud558\uc6b4", "name:lt": "Frederikshaunas", "name:mk": "\u0424\u0440\u0435\u0434\u0435\u0440\u0438\u043a\u0441\u0445\u0430\u0432\u043d", "name:nl": "Frederikshavn", "name:ru": "\u0424\u0440\u0435\u0434\u0435\u0440\u0438\u043a\u0441\u0445\u0430\u0432\u043d", "name:sr": "\u0424\u0440\u0435\u0434\u0435\u0440\u0438\u043a\u0441\u0445\u0430\u0432\u043d", "name:sv": "Fredrikshamn, Danmark", "name:zh": "\u8153\u7279\u70c8\u6e2f", "place": "town", "population": "23423", "population:date": "2018-01-01", "source:population": "http://www.statistikbanken.dk/BY1", "wikidata": "Q27452", "wikipedia": "da:Frederikshavn"}}, "geometry": {"type": "Point", "coordinates": [10.5336225, 57.4412134]}}, {"type": "Feature", "properties": {"type": "node", "id": 2208554046, "tags": {"name": "Skagen", "name:be": "\u0421\u043a\u0430\u0433\u0435\u043d", "name:bg": "\u0421\u043a\u0430\u0433\u0435\u043d", "name:fa": "\u0627\u0633\u06a9\u0627\u06af\u0646", "name:fy": "Skagen", "name:is": "Skaginn", "name:lt": "Skagenas", "name:os": "\u0421\u043a\u0430\u0433\u0435\u043d", "name:ru": "\u0421\u043a\u0430\u0433\u0435\u043d", "name:uk": "\u0421\u043a\u0430\u0433\u0435\u043d", "name:zh": "\u65af\u5361\u6069", "place": "town", "population": "8037", "population:date": "2018-01-01", "source:population": "http://www.statistikbanken.dk/BY1", "wikidata": "Q215177", "wikipedia": "da:Skagen"}}, "geometry": {"type": "Point", "coordinates": [10.5844602, 57.7259703]}}]}